{"type": "FeatureCollection", "features": [ {"type": "Feature", "properties": {"norad_id": 38552, "name": "METEOSAT-10 (MSG-3)", "group": "weather", "lat": 0.2547484202204647, "lon": -121.8830908586782, "alt_km": 35787.33406858962, "timestamp": "2025-12-26T09:30:53.269916+00:00", "meta": {"OBJECT_NAME": "METEOSAT-10 (MSG-3)", "OBJECT_ID": "2012-035B", "EPOCH": "2025-12-25T19:55:02.807904", "MEAN_MOTION": 1.00266624, "ECCENTRICITY": 0.0001479, "INCLINATION": 4.2575, "RA_OF_ASC_NODE": 61.6862, "ARG_OF_PERICENTER": 265.3349, "MEAN_ANOMALY": 66.5982, "EPHEMERIS_TYPE": 0, "CLASSIFICATION_TYPE": "U", "NORAD_CAT_ID": 38552, "ELEMENT_SET_NO": 999, "REV_AT_EPOCH": 4911, "BSTAR": 0, "MEAN_MOTION_DOT": 1.4e-07, "MEAN_MOTION_DDOT": 0}, "tle": {"line1": "1 38552U 12035B   25359.82989361  .00000014  00000+0  00000+0 0  9997", "line2": "2 38552   4.2575  61.6862 0001479 265.3349  66.5982  1.00266624 49118"}}, "geometry": {"type": "Point", "coordinates": [-121.8830908586782, 0.2547484202204647]}}, {"type": "Feature", "properties": {"norad_id": 38771, "name": "METOP-B", "group": "weather", "lat": 81.28034772119013, "lon": -45.140569761443864, "alt_km": 810.9645270695246, "timestamp": "2025-12-26T09:30:53.269927+00:00", "meta": {"OBJECT_NAME": "METOP-B", "OBJECT_ID": "2012-049A", "EPOCH": "2025-12-26T02:19:54.086592", "MEAN_MOTION": 14.21413292, "ECCENTRICITY": 0.0003289, "INCLINATION": 98.678, "RA_OF_ASC_NODE": 49.8284, "ARG_OF_PERICENTER": 116.4148, "MEAN_ANOMALY": 243.7367, "EPHEMERIS_TYPE": 0, "CLASSIFICATION_TYPE": "U", "NORAD_CAT_ID": 38771, "ELEMENT_SET_NO": 999, "REV_AT_EPOCH": 68867, "BSTAR": 7.8324e-05, "MEAN_MOTION_DOT": 1.28e-06, "MEAN_MOTION_DDOT": 0}, "tle": {"line1": "1 38771U 12049A   25360.09715378  .00000128  00000+0  78324-4 0  9996", "line2": "2 38771  98.6780  49.8284 0003289 116.4148 243.7367 14.21413292688674"}}, "geometry": {"type": "Point", "coordinates": [-45.140569761443864, 81.28034772119013]}}, {"type": "Feature", "properties": {"norad_id": 39216, "name": "INSAT-3D", "group": "weather", "lat": -1.4447369151075558, "lon": 7.432484705959552, "alt_km": 35790.45224297462, "timestamp": "2025-12-26T09:30:53.269939+00:00", "meta": {"OBJECT_NAME": "INSAT-3D", "OBJECT_ID": "2013-038B", "EPOCH": "2025-12-26T00:52:38.586144", "MEAN_MOTION": 1.00273672, "ECCENTRICITY": 0.0001945, "INCLINATION": 1.4773, "RA_OF_ASC_NODE": 84.8465, "ARG_OF_PERICENTER": 157.8171, "MEAN_ANOMALY": 354.8337, "EPHEMERIS_TYPE": 0, "CLASSIFICATION_TYPE": "U", "NORAD_CAT_ID": 39216, "ELEMENT_SET_NO": 999, "REV_AT_EPOCH": 4534, "BSTAR": 0, "MEAN_MOTION_DOT": -3.17e-06, "MEAN_MOTION_DDOT": 0}, "tle": {"line1": "1 39216U 13038B   25360.03655771 -.00000317  00000+0  00000+0 0  9996", "line2": "2 39216   1.4773  84.8465 0001945 157.8171 354.8337  1.00273672 45346"}}, "geometry": {"type": "Point", "coordinates": [7.432484705959552, -1.4447369151075558]}}, {"type": "Feature", "properties": {"norad_id": 39260, "name": "FENGYUN 3C", "group": "weather", "lat": 55.92700364937025, "lon": -35.32965660937896, "alt_km": 836.3920399076696, "timestamp": "2025-12-26T09:30:53.269951+00:00", "meta": {"OBJECT_NAME": "FENGYUN 3C", "OBJECT_ID": "2013-052A", "EPOCH": "2025-12-26T04:09:28.459584", "MEAN_MOTION": 14.15700261, "ECCENTRICITY": 0.0015037, "INCLINATION": 98.478, "RA_OF_ASC_NODE": 337.1977, "ARG_OF_PERICENTER": 157.3771, "MEAN_ANOMALY": 202.8069, "EPHEMERIS_TYPE": 0, "CLASSIFICATION_TYPE": "U", "NORAD_CAT_ID": 39260, "ELEMENT_SET_NO": 999, "REV_AT_EPOCH": 63408, "BSTAR": 7.1585e-05, "MEAN_MOTION_DOT": 9.9e-07, "MEAN_MOTION_DDOT": 0}, "tle": {"line1": "1 39260U 13052A   25360.17324606  .00000099  00000+0  71585-4 0  9993", "line2": "2 39260  98.4780 337.1977 0015037 157.3771 202.8069 14.15700261634087"}}, "geometry": {"type": "Point", "coordinates": [-35.32965660937896, 55.92700364937025]}}, {"type": "Feature", "properties": {"norad_id": 40069, "name": "METEOR-M 2", "group": "weather", "lat": -41.616911477561295, "lon": -14.91452620848121, "alt_km": 830.7468703438926, "timestamp": "2025-12-26T09:30:53.269962+00:00", "meta": {"OBJECT_NAME": "METEOR-M 2", "OBJECT_ID": "2014-037A", "EPOCH": "2025-12-26T04:38:41.144064", "MEAN_MOTION": 14.21392793, "ECCENTRICITY": 0.0005673, "INCLINATION": 98.4922, "RA_OF_ASC_NODE": 337.263, "ARG_OF_PERICENTER": 167.9912, "MEAN_ANOMALY": 192.1402, "EPHEMERIS_TYPE": 0, "CLASSIFICATION_TYPE": "U", "NORAD_CAT_ID": 40069, "ELEMENT_SET_NO": 999, "REV_AT_EPOCH": 59474, "BSTAR": 0.00023551, "MEAN_MOTION_DOT": 4.72e-06, "MEAN_MOTION_DDOT": 0}, "tle": {"line1": "1 40069U 14037A   25360.19353176  .00000472  00000+0  23551-3 0  9996", "line2": "2 40069  98.4922 337.2630 0005673 167.9912 192.1402 14.21392793594744"}}, "geometry": {"type": "Point", "coordinates": [-14.91452620848121, -41.616911477561295]}}, {"type": "Feature", "properties": {"norad_id": 40267, "name": "HIMAWARI-8", "group": "weather", "lat": 0.010381742194039619, "lon": 18.533402208605864, "alt_km": 35785.21673115709, "timestamp": "2025-12-26T09:30:53.269974+00:00", "meta": {"OBJECT_NAME": "HIMAWARI-8", "OBJECT_ID": "2014-060A", "EPOCH": "2025-12-26T00:44:38.655744", "MEAN_MOTION": 1.00270789, "ECCENTRICITY": 9.99e-05, "INCLINATION": 0.0428, "RA_OF_ASC_NODE": 196.6359, "ARG_OF_PERICENTER": 108.3794, "MEAN_ANOMALY": 301.5944, "EPHEMERIS_TYPE": 0, "CLASSIFICATION_TYPE": "U", "NORAD_CAT_ID": 40267, "ELEMENT_SET_NO": 999, "REV_AT_EPOCH": 4102, "BSTAR": 0, "MEAN_MOTION_DOT": -2.54e-06, "MEAN_MOTION_DDOT": 0}, "tle": {"line1": "1 40267U 14060A   25360.03100296 -.00000254  00000+0  00000+0 0  9997", "line2": "2 40267   0.0428 196.6359 0000999 108.3794 301.5944  1.00270789 41020"}}, "geometry": {"type": "Point", "coordinates": [18.533402208605864, 0.010381742194039619]}}, {"type": "Feature", "properties": {"norad_id": 40367, "name": "FENGYUN 2G", "group": "weather", "lat": -5.165093537550954, "lon": -22.868333649456613, "alt_km": 35784.10976260435, "timestamp": "2025-12-26T09:30:53.269986+00:00", "meta": {"OBJECT_NAME": "FENGYUN 2G", "OBJECT_ID": "2014-090A", "EPOCH": "2025-12-26T01:31:24.188160", "MEAN_MOTION": 1.0028183, "ECCENTRICITY": 0.0001733, "INCLINATION": 5.1989, "RA_OF_ASC_NODE": 74.9322, "ARG_OF_PERICENTER": 171.0452, "MEAN_ANOMALY": 330.9574, "EPHEMERIS_TYPE": 0, "CLASSIFICATION_TYPE": "U", "NORAD_CAT_ID": 40367, "ELEMENT_SET_NO": 999, "REV_AT_EPOCH": 4026, "BSTAR": 0, "MEAN_MOTION_DOT": -2.82e-06, "MEAN_MOTION_DDOT": 0}, "tle": {"line1": "1 40367U 14090A   25360.06347440 -.00000282  00000+0  00000+0 0  9999", "line2": "2 40367   5.1989  74.9322 0001733 171.0452 330.9574  1.00281830 40261"}}, "geometry": {"type": "Point", "coordinates": [-22.868333649456613, -5.165093537550954]}}, {"type": "Feature", "properties": {"norad_id": 40732, "name": "METEOSAT-11 (MSG-4)", "group": "weather", "lat": 0.22276948424332535, "lon": -112.94617758414775, "alt_km": 35783.755716526655, "timestamp": "2025-12-26T09:30:53.270017+00:00", "meta": {"OBJECT_NAME": "METEOSAT-11 (MSG-4)", "OBJECT_ID": "2015-034A", "EPOCH": "2025-12-25T16:31:52.264704", "MEAN_MOTION": 1.00271545, "ECCENTRICITY": 6.999e-05, "INCLINATION": 2.7688, "RA_OF_ASC_NODE": 71.966, "ARG_OF_PERICENTER": 136.703, "MEAN_ANOMALY": 142.9271, "EPHEMERIS_TYPE": 0, "CLASSIFICATION_TYPE": "U", "NORAD_CAT_ID": 40732, "ELEMENT_SET_NO": 999, "REV_AT_EPOCH": 547, "BSTAR": 0, "MEAN_MOTION_DOT": 8.2e-07, "MEAN_MOTION_DDOT": 0}, "tle": {"line1": "1 40732U 15034A   25359.68879936  .00000082  00000+0  00000+0 0  9997", "line2": "2 40732   2.7688  71.9660 0000699 136.7030 142.9271  1.00271545  5479"}}, "geometry": {"type": "Point", "coordinates": [-112.94617758414775, 0.22276948424332535]}}, {"type": "Feature", "properties": {"norad_id": 41105, "name": "ELEKTRO-L 2", "group": "weather", "lat": 3.053377133674323, "lon": -136.49580610356912, "alt_km": 35777.43569686536, "timestamp": "2025-12-26T09:30:53.270030+00:00", "meta": {"OBJECT_NAME": "ELEKTRO-L 2", "OBJECT_ID": "2015-074A", "EPOCH": "2025-12-26T04:33:21.945312", "MEAN_MOTION": 1.00271693, "ECCENTRICITY": 0.000362, "INCLINATION": 6.2573, "RA_OF_ASC_NODE": 72.6685, "ARG_OF_PERICENTER": 207.9868, "MEAN_ANOMALY": 228.1548, "EPHEMERIS_TYPE": 0, "CLASSIFICATION_TYPE": "U", "NORAD_CAT_ID": 41105, "ELEMENT_SET_NO": 999, "REV_AT_EPOCH": 3677, "BSTAR": 0, "MEAN_MOTION_DOT": -9.7e-07, "MEAN_MOTION_DDOT": 0}, "tle": {"line1": "1 41105U 15074A   25360.18983733 -.00000097  00000+0  00000+0 0  9991", "line2": "2 41105   6.2573  72.6685 0003620 207.9868 228.1548  1.00271693 36773"}}, "geometry": {"type": "Point", "coordinates": [-136.49580610356912, 3.053377133674323]}}, {"type": "Feature", "properties": {"norad_id": 41752, "name": "INSAT-3DR", "group": "weather", "lat": -0.10400754709497323, "lon": -48.04910859737321, "alt_km": 35739.90079038101, "timestamp": "2025-12-26T09:30:53.270042+00:00", "meta": {"OBJECT_NAME": "INSAT-3DR", "OBJECT_ID": "2016-054A", "EPOCH": "2025-12-24T15:09:51.705216", "MEAN_MOTION": 1.00271379, "ECCENTRICITY": 0.00142635, "INCLINATION": 0.1198, "RA_OF_ASC_NODE": 86.2568, "ARG_OF_PERICENTER": 185.6475, "MEAN_ANOMALY": 122.9543, "EPHEMERIS_TYPE": 0, "CLASSIFICATION_TYPE": "U", "NORAD_CAT_ID": 41752, "ELEMENT_SET_NO": 999, "REV_AT_EPOCH": 3406, "BSTAR": 0, "MEAN_MOTION_DOT": -5.6e-07, "MEAN_MOTION_DDOT": 0}, "tle": {"line1": "1 41752U 16054A   25358.63184844 -.00000056  00000+0  00000+0 0  9996", "line2": "2 41752   0.1198  86.2568 0014263 185.6475 122.9543  1.00271379 34066"}}, "geometry": {"type": "Point", "coordinates": [-48.04910859737321, -0.10400754709497323]}}]}